HAWK-11B                
1 62379U 24247C   26068.44730104  .00009093  00000+0  32842-3 0  9993
2 62379  45.0161 115.7610 0004690 333.0326  27.0314 15.28847070 67738
STARLINK-35811          
1 66596U 25270J   26068.37318022  .00041822  00000+0  15204-2 0  9996
2 66596  43.0034  58.3000 0001095 287.3738  72.6994 15.27587209 17761
