[{"OBJECT_NAME":"HAWK-11B","OBJECT_ID":"2024-247C","EPOCH":"2026-03-09T10:44:06.809856","MEAN_MOTION":15.2884707,"ECCENTRICITY":0.00046902,"INCLINATION":45.0161,"RA_OF_ASC_NODE":115.761,"ARG_OF_PERICENTER":333.0326,"MEAN_ANOMALY":27.0314,"EPHEMERIS_TYPE":0,"CLASSIFICATION_TYPE":"U","NORAD_CAT_ID":62379,"ELEMENT_SET_NO":999,"REV_AT_EPOCH":6773,"BSTAR":0.00032841927,"MEAN_MOTION_DOT":9.093e-5,"MEAN_MOTION_DDOT":0},{"OBJECT_NAME":"STARLINK-35811","OBJECT_ID":"2025-270J","EPOCH":"2026-03-09T08:57:22.771008","MEAN_MOTION":15.27587209,"ECCENTRICITY":0.00010952,"INCLINATION":43.0034,"RA_OF_ASC_NODE":58.3,"ARG_OF_PERICENTER":287.3738,"MEAN_ANOMALY":72.6994,"EPHEMERIS_TYPE":0,"CLASSIFICATION_TYPE":"U","NORAD_CAT_ID":66596,"ELEMENT_SET_NO":999,"REV_AT_EPOCH":1776,"BSTAR":0.001520372,"MEAN_MOTION_DOT":0.00041822,"MEAN_MOTION_DDOT":0}]
